[
    {
        "Altitude(m)": 622205.8402667791,
        "Argument of Periapsis(deg)": 0.0,
        "Eccentricity": 0.0,
        "Inclination(deg)": 60.0,
        "Latitude(deg)": -52.16236027722166,
        "Longitude(deg)": 142.70031318710403,
        "Mean Anomaly(deg)": 245.4545,
        "RAAN(deg)": 15.0,
        "Satellite Name": "Test1 81",
        "Satellite Number": 81,
        "Semi-Major Axis(m)": 6980739.136638005,
        "Time(s)": 0
    },
    {
        "Altitude(m)": 622344.7472112229,
        "Argument of Periapsis(deg)": 0.00010418945913296404,
        "Eccentricity": 0.0,
        "Inclination(deg)": 60.0,
        "Latitude(deg)": -52.51994074871505,
        "Longitude(deg)": 143.48152317499466,
        "Mean Anomaly(deg)": 246.07460614546184,
        "RAAN(deg)": 14.999579950860259,
        "Satellite Name": "Test1 81",
        "Satellite Number": 81,
        "Semi-Major Axis(m)": 6980739.136638005,
        "Time(s)": 10
    }
]